1 45689U 20035AJ  22365.36554792  .00004722  00000-0  33557-3 0  9992
2 45689  53.0548 243.4784 0001199 100.8001 259.3123 15.06412795143295
1 45689U 20035AJ  22365.36554792  .00004722  00000-0  33557-3 0  9992
2 45689  53.0548 243.4784 0001199 100.8001 259.3123 15.06412795142979
1 45689U 20035AJ  22365.69729251  .00003559  00000-0  25765-3 0  9991
2 45689  53.0542 241.9902 0001979 107.5216 252.5989 15.06406559143344
1 45689U 20035AJ  23001.02902918  .00000613  00000-0  60018-4 0  9998
2 45689  53.0541 240.5006 0001504 102.5643 257.5514 15.06397910143075
1 45689U 20035AJ  23001.36077495 -.00000123  00000-0  10657-4 0  9999
2 45689  53.0544 239.0107 0001411  99.8478 260.2670 15.06387483143443
1 45689U 20035AJ  23001.36077495 -.00000123  00000-0  10657-4 0  9999
2 45689  53.0544 239.0107 0001411  99.8478 260.2670 15.06387483143128
1 45689U 20035AJ  23001.75886076 -.00002404  00000-0 -14254-3 0  9996
2 45689  53.0552 237.2272 0001802 107.4443 252.6743 15.06390632143500
1 45689U 20035AJ  23002.35598566 -.00002672  00000-0 -16059-3 0  9999
2 45689  53.0544 234.5437 0001437 102.5249 257.5901 15.06390626143590
1 45689U 20035AJ  23002.88676227 -.00000132  00000-0  10043-4 0  9994
2 45689  53.0541 232.1608 0001477 102.5005 257.6149 15.06385365143673
1 45689U 20035AJ  23002.88676227 -.00000132  00000-0  10043-4 0  9994
2 45689  53.0541 232.1608 0001477 102.5005 257.6149 15.06385365143358
1 45689U 20035AJ  23003.35119022  .00000802  00000-0  72766-4 0  9995
2 45689  53.0542 230.0758 0001483 102.2454 257.8701 15.06389000143743
1 45689U 20035AJ  23003.74926209  .00004210  00000-0  30136-3 0  9992
2 45689  53.0539 228.2886 0001398 101.4101 258.7045 15.06396626143489
1 45689U 20035AJ  23004.34638223  .00003831  00000-0  27595-3 0  9998
2 45689  53.0540 225.6080 0001362 102.5439 257.5702 15.06402368143898
1 45689U 20035AJ  23004.87715296  .00003008  00000-0  22070-3 0  9991
2 45689  53.0539 223.2249 0001326 104.5478 255.5659 15.06406881143974
1 45689U 20035AJ  23005.00984156  .00003034  00000-0  22240-3 0  9998
2 45689  53.0537 222.6287 0001370 106.7220 253.3920 15.06412762143674
1 45689U 20035AJ  23005.40792071  .00002281  00000-0  17194-3 0  9990
2 45689  53.0538 220.8408 0001297 113.4087 246.7039 15.06411504144057
1 45689U 20035AJ  23005.67330774  .00000040  00000-0  21584-4 0  9997
2 45689  53.0535 219.6511 0001384  99.4048 260.7097 15.06414720144099
1 45689U 20035AJ  23006.27044103 -.00001958  00000-0 -11260-3 0  9992
2 45689  53.0536 216.9702 0001332  99.8021 260.3118 15.06395649143862
1 45689U 20035AJ  23006.93392432  .00005881  00000-0  41389-3 0  9998
2 45689  53.0544 213.9928 0001537  94.6222 265.4943 15.06350550144282
1 45689U 20035AJ  23007.26564987 -.00002658  00000-0 -15965-3 0  9993
2 45689  53.0540 212.5032 0001383  99.5272 260.5873 15.06393314144336
1 45689U 20035AJ  23007.59738501 -.00001198  00000-0 -61547-4 0  9990
2 45689  53.0535 211.0136 0001352 101.1726 258.9415 15.06389542144385
1 45689U 20035AJ  23007.59738501 -.00001198  00000-0 -61547-4 0  9990
2 45689  53.0535 211.0136 0001352 101.1726 258.9415 15.06389542144060
1 45689U 20035AJ  23008.59259276  .00002450  00000-0  18338-3 0  9997
2 45689  53.0540 206.5460 0001204 102.7284 257.3840 15.06382880144532
1 45689U 20035AJ  23008.92432629  .00002114  00000-0  16079-3 0  9996
2 45689  53.0539 205.0567 0001277 101.7955 258.3178 15.06389821144588
1 45689U 20035AJ  23008.92432629  .00002114  00000-0  16079-3 0  9996
2 45689  53.0539 205.0567 0001277 101.7955 258.3178 15.06389821144263
1 45689U 20035AJ  23009.25605983  .00002274  00000-0  17152-3 0  9998
2 45689  53.0540 203.5675 0001271 102.0459 258.0672 15.06393276144631
1 45689U 20035AJ  23009.91952540  .00002024  00000-0  15473-3 0  9992
2 45689  53.0537 200.5889 0001260 101.8595 258.2535 15.06400313144739
1 45689U 20035AJ  23010.25125615  .00002285  00000-0  17221-3 0  9998
2 45689  53.0537 199.0998 0001257 101.8551 258.2578 15.06404671144468
1 45689U 20035AJ  23010.51664142  .00002255  00000-0  17020-3 0  9994
2 45689  53.0538 197.9083 0001278 101.6425 258.4707 15.06406938144826
1 45689U 20035AJ  23010.78203418  .00001938  00000-0  14896-3 0  9993
2 45689  53.0560 196.7170 0001009 105.3844 254.7256 15.06397429144544
1 45689U 20035AJ  23010.91472889  .00003228  00000-0  23553-3 0  9992
2 45689  53.0554 196.1211 0001205 104.9633 255.1490 15.06395615144883
1 45689U 20035AJ  23011.51184798  .00000226  00000-0  34046-4 0  9993
2 45689  53.0557 193.4399 0001260 103.6868 256.4261 15.06401826144972
1 45689U 20035AJ  23011.77723065  .00000892  00000-0  78733-4 0  9997
2 45689  53.0530 192.2496 0001363  99.7459 260.3684 15.06406493145017
1 45689U 20035AJ  23012.77243575 -.00005081  00000-0 -32237-3 0  9996
2 45689  53.0528 187.7819 0001391  94.8555 265.2593 15.06412238145169
1 45689U 20035AJ  23012.77243575 -.00005081  00000-0 -32237-3 0  9996
2 45689  53.0528 187.7819 0001391  94.8555 265.2593 15.06412238144843
1 45689U 20035AJ  23013.50225968 -.00000116  00000-0  11091-4 0  9993
2 45689  53.0525 184.5060 0001289  99.5298 260.5836 15.06395164145279
1 45689U 20035AJ  23013.50225968 -.00000116  00000-0  11091-4 0  9993
2 45689  53.0525 184.5060 0001289  99.5298 260.5836 15.06395164144953
1 45689U 20035AJ  23013.90033804  .00000360  00000-0  43092-4 0  9999
2 45689  53.0526 182.7188 0001294  99.3978 260.7157 15.06398996145331
1 45689U 20035AJ  23014.82919401  .00001952  00000-0  14989-3 0  9997
2 45689  53.0534 178.5481 0001204  93.6385 266.4742 15.06398932145152
1 45689U 20035AJ  23015.42632496  .00003504  00000-0  25410-3 0  9996
2 45689  53.0536 175.8675 0001271  90.1859 269.9276 15.06383420145562
1 45689U 20035AJ  23015.42632496  .00003504  00000-0  25410-3 0  9996
2 45689  53.0536 175.8675 0001271  90.1859 269.9276 15.06383420145247
1 45689U 20035AJ  23015.75805060  .00001412  00000-0  11364-3 0  9990
2 45689  53.0536 174.3792 0001238  88.0876 272.0255 15.06401705145619
1 45689U 20035AJ  23015.75805060  .00001412  00000-0  11364-3 0  9990
2 45689  53.0536 174.3792 0001238  88.0876 272.0255 15.06401705145293
1 45689U 20035AJ  23016.42152484  .00000262  00000-0  36475-4 0  9993
2 45689  53.0542 171.3997 0001308  92.2765 267.8374 15.06395579145392
1 45689U 20035AJ  23016.55421834  .00000407  00000-0  46223-4 0  9998
2 45689  53.0541 170.8044 0001271  92.2618 267.8517 15.06395745145736
1 45689U 20035AJ  23016.75325393  .00000595  00000-0  58811-4 0  9997
2 45689  53.0538 169.9103 0001342  92.0403 268.0739 15.06402217145761
1 45689U 20035AJ  23017.54942388 -.00000162  00000-0  80343-5 0  9991
2 45689  53.0536 166.3368 0001464  90.9281 269.1876 15.06393583145881
1 45689U 20035AJ  23017.54942388 -.00000162  00000-0  80343-5 0  9991
2 45689  53.0536 166.3368 0001464  90.9281 269.1876 15.06393583145566
1 45689U 20035AJ  23017.68211484  .00000317  00000-0  40168-4 0  9993
2 45689  53.0533 165.7422 0001252  92.5579 267.5554 15.06395914145903
1 45689U 20035AJ  23018.67731205  .00001236  00000-0  10183-3 0  9995
2 45689  53.0530 161.2758 0001432  89.6039 270.5114 15.06403089146057
1 45689U 20035AJ  23018.67731205  .00001236  00000-0  10183-3 0  9995
2 45689  53.0530 161.2758 0001432  89.6039 270.5114 15.06403089145731
1 45689U 20035AJ  23019.07539616  .00000253  00000-0  35892-4 0  9995
2 45689  53.0546 159.4878 0001006  84.0781 276.0322 15.06400026145796
1 45689U 20035AJ  23019.34079081  .00000794  00000-0  72191-4 0  9993
2 45689  53.0533 158.2964 0001439  96.5432 263.5720 15.06391063146150
1 45689U 20035AJ  23019.34079081  .00000794  00000-0  72191-4 0  9993
2 45689  53.0533 158.2964 0001439  96.5432 263.5720 15.06391063145834
1 45689U 20035AJ  23020.07060318  .00000625  00000-0  60844-4 0  9993
2 45689  53.0542 155.0198 0000916  90.9224 269.1870 15.06397646146263
1 45689U 20035AJ  23020.73406318  .00002070  00000-0  15776-3 0  9999
2 45689  53.0539 152.0411 0000950  88.7314 271.3784 15.06408077146043
1 45689U 20035AJ  23021.06580664 -.00000333  00000-0 -34446-5 0  9992
2 45689  53.0551 150.5515 0001216  91.2620 268.8508 15.06399565146091
1 45689U 20035AJ  23022.59178619  .00000923  00000-0  80879-4 0  9997
2 45689  53.0541 143.7010 0001219  85.3469 274.7659 15.06398010146325
1 45689U 20035AJ  23024.44949974  .00000891  00000-0  78710-4 0  9998
2 45689  53.0544 135.3637 0001249  65.7443 294.3676 15.06397733146606
1 45689U 20035AJ  23025.51105928 -.00000801  00000-0 -34886-4 0  9999
2 45689  53.0553 130.5964 0001139  77.3657 282.7460 15.06389856146766
1 45689U 20035AJ  23025.57740523 -.00000530  00000-0 -16714-4 0  9990
2 45689  53.0549 130.2981 0001106  87.3126 272.7990 15.06390048147092
1 45689U 20035AJ  23026.50625791 -.00000260  00000-0  14687-5 0  9990
2 45689  53.0543 126.1294 0001891 123.8164 236.3005 15.06397179147237
1 45689U 20035AJ  23026.50625791 -.00000260  00000-0  14687-5 0  9990
2 45689  53.0543 126.1294 0001891 123.8164 236.3005 15.06397179146911
1 45689U 20035AJ  23026.97070504 -.00002021  00000-0 -11693-3 0  9997
2 45689  53.0541 124.0444 0001293 107.6407 252.4724 15.06369789146989
1 45689U 20035AJ  23027.56780365  .00002111  00000-0  16058-3 0  9994
2 45689  53.0540 121.3635 0001241 113.4427 246.6692 15.06398172147078
1 45689U 20035AJ  23028.56300524 -.00000302  00000-0 -13906-5 0  9993
2 45689  53.0547 116.8953 0001521  91.5392 268.5772 15.06407412147547
1 45689U 20035AJ  23029.22648236  .00000082  00000-0  24408-4 0  9993
2 45689  53.0540 113.9172 0001382  90.2150 269.8997 15.06391429147323
1 45689U 20035AJ  23029.49186998  .00002117  00000-0  16106-3 0  9990
2 45689  53.0537 112.7269 0001716  76.4169 283.7011 15.06386388147689
1 45689U 20035AJ  23030.42072223  .00000453  00000-0  49342-4 0  9990
2 45689  53.0538 108.5565 0001393  86.6633 273.4515 15.06395119147500
1 45689U 20035AJ  23030.48706756  .00000654  00000-0  62830-4 0  9991
2 45689  53.0540 108.2584 0001320  88.8665 271.2475 15.06396685147836
1 45689U 20035AJ  23031.48227250  .00000253  00000-0  35857-4 0  9993
2 45689  53.0538 103.7910 0001336  90.7194 269.3948 15.06396549147980
1 45689U 20035AJ  23031.48227250  .00000253  00000-0  35857-4 0  9993
2 45689  53.0538 103.7910 0001336  90.7194 269.3948 15.06396549147665
